NORAD_CAT_ID,OBJECT_NAME,OBJECT_TYPE,EPOCH,MEAN_MOTION,ECCENTRICITY,INCLINATION,RA_OF_ASC_NODE,ARG_OF_PERICENTER,MEAN_ANOMALY,BSTAR,MEAN_MOTION_DOT,MEAN_MOTION_DDOT,TLE_LINE0,TLE_LINE1,TLE_LINE2,SEMIMAJOR_AXIS,PERIOD,APOGEE,PERIGEE,DECAYED
53895.0,STARLINK-5032,PAYLOAD,2024-03-06 03:11:34,15.08834575,0.0001755,53.2189,17.0971,87.1357,272.9836,-5.6213e-05,-1.182e-05,0.0,0 STARLINK-5032,1 53895U 22119K   24066.13303874 -.00001182  00000-0 -56213-4 0  9997,2 53895  53.2189  17.0971 0001755  87.1357 272.9836 15.08834575 80522,6917.897,95.438,540.976,538.548,0.0
53895.0,STARLINK-5032,PAYLOAD,2024-03-07 03:02:20,15.08862334,0.0001453,53.2196,12.6375,91.174,268.9419,0.00062795,9.726e-05,0.0,0 STARLINK-5032,1 53895U 22119K   24067.12662439  .00009726  00000-0  62795-3 0  9993,2 53895  53.2196  12.6375 0001453  91.1740 268.9419 15.08862334 80677,6917.812,95.436,540.682,538.672,0.0
53895.0,STARLINK-5032,PAYLOAD,2024-03-07 06:13:06,15.08864589,0.0001528,53.2192,12.0428,95.4613,264.6554,0.00085496,0.00013354,0.0,0 STARLINK-5032,1 53895U 22119K   24067.25910506  .00013354  00000-0  85496-3 0  9993,2 53895  53.2192  12.0428 0001528  95.4613 264.6554 15.08864589 81112,6917.805,95.436,540.727,538.613,0.0
53895.0,STARLINK-5032,PAYLOAD,2024-03-08 01:17:44,15.08851651,0.0001609,53.2184,8.4772,96.7149,263.4027,3.9979e-05,3.48e-06,0.0,0 STARLINK-5032,1 53895U 22119K   24068.05398870  .00000348  00000-0  39979-4 0  9991,2 53895  53.2184   8.4772 0001609  96.7149 263.4027 15.08851651 80816,6917.845,95.437,540.823,538.597,0.0
53895.0,STARLINK-5032,PAYLOAD,2024-03-08 06:03:53,15.08857504,0.0001402,53.2184,7.5845,104.1136,256.0012,6.7834e-05,7.92e-06,0.0,0 STARLINK-5032,1 53895U 22119K   24068.25270148  .00000792  00000-0  67834-4 0  9994,2 53895  53.2184   7.5845 0001402 104.1136 256.0012 15.08857504 80846,6917.827,95.436,540.662,538.722,0.0
53895.0,STARLINK-5032,PAYLOAD,2024-03-08 20:22:21,15.08837127,0.0001713,53.2184,4.9058,115.5654,244.5516,-2.3107e-05,-6.56e-06,0.0,0 STARLINK-5032,1 53895U 22119K   24068.84886365 -.00000656  00000-0 -23107-4 0  9999,2 53895  53.2184   4.9058 0001713 115.5654 244.5516 15.08837127 80939,6917.889,95.438,540.939,538.569,0.0
53895.0,STARLINK-5032,PAYLOAD,2024-03-09 05:54:40,15.08851804,0.0001626,53.2194,3.1246,103.6802,256.4371,0.00031763,4.772e-05,0.0,0 STARLINK-5032,1 53895U 22119K   24069.24630324  .00004772  00000-0  31763-3 0  9993,2 53895  53.2194   3.1246 0001626 103.6802 256.4371 15.08851804 80991,6917.844,95.437,540.834,538.584,0.0
53895.0,STARLINK-5032,PAYLOAD,2024-03-09 12:16:13,15.08842442,0.0001406,53.2183,1.9326,91.0734,269.0419,0.00052185,8.028e-05,0.0,0 STARLINK-5032,1 53895U 22119K   24069.51126660  .00008028  00000-0  52185-3 0  9995,2 53895  53.2183   1.9326 0001406  91.0734 269.0419 15.08842442 81457,6917.873,95.437,540.711,538.765,0.0
53895.0,STARLINK-5032,PAYLOAD,2024-03-09 20:13:09,15.08841344,0.0002044,53.219,0.448,109.3235,250.7979,0.00019566,2.827e-05,0.0,0 STARLINK-5032,1 53895U 22119K   24069.84246766  .00002827  00000-0  19566-3 0  9998,2 53895  53.2190   0.4480 0002044 109.3235 250.7979 15.08841344 81085,6917.876,95.437,541.155,538.327,0.0
53895.0,STARLINK-5032,PAYLOAD,2024-03-10 12:07:00,15.08841778,0.000151,53.2187,357.4754,96.5553,263.5612,0.00022211,3.249e-05,0.0,0 STARLINK-5032,1 53895U 22119K   24070.50486689  .00003249  00000-0  22211-3 0  9993,2 53895  53.2187 357.4754 0001510  96.5553 263.5612 15.08841778 81602,6917.875,95.437,540.785,538.695,0.0
53895.0,STARLINK-5032,PAYLOAD,2024-03-11 04:00:51,15.08842162,0.0001508,53.2184,354.5001,86.7964,273.32,7.8392e-05,9.6e-06,0.0,0 STARLINK-5032,1 53895U 22119K   24071.16726808  .00000960  00000-0  78392-4 0  9995,2 53895  53.2184 354.5001 0001508  86.7964 273.3200 15.08842162 81280,6917.874,95.437,540.782,538.696,0.0
53895.0,STARLINK-5032,PAYLOAD,2024-03-12 03:51:39,15.08841449,0.0001064,53.2178,350.038,84.8669,275.2444,0.00011971,1.618e-05,0.0,0 STARLINK-5032,1 53895U 22119K   24072.16086912  .00001618  00000-0  11971-3 0  9991,2 53895  53.2178 350.0380 0001064  84.8669 275.2444 15.08841449 81437,6917.876,95.437,540.477,539.005,0.0
53895.0,STARLINK-5032,PAYLOAD,2024-03-13 11:39:22,15.08837466,0.0001669,53.2188,344.091,90.4864,269.632,8.3143e-05,1.035e-05,0.0,0 STARLINK-5032,1 53895U 22119K   24073.48567435  .00001035  00000-0  83143-4 0  9995,2 53895  53.2188 344.0910 0001669  90.4864 269.6320 15.08837466 81637,6917.888,95.438,540.908,538.599,0.0
53895.0,STARLINK-5032,PAYLOAD,2024-03-13 22:47:04,15.08840445,0.0001331,53.2169,342.01,92.8634,267.2511,7.4744e-05,9.02e-06,0.0,0 STARLINK-5032,1 53895U 22119K   24073.94935263  .00000902  00000-0  74744-4 0  9993,2 53895  53.2169 342.0100 0001331  92.8634 267.2511 15.08840445 82124,6917.879,95.438,540.665,538.823,0.0
53895.0,STARLINK-5032,PAYLOAD,2024-03-14 00:22:27,15.0884152,0.0001427,53.2169,341.7128,90.7577,269.3579,8.8176e-05,1.116e-05,0.0,0 STARLINK-5032,1 53895U 22119K   24074.01559240  .00001116  00000-0  88176-4 0  9991,2 53895  53.2169 341.7128 0001427  90.7577 269.3579 15.08841520 82132,6917.876,95.437,540.728,538.754,0.0
53895.0,STARLINK-5032,PAYLOAD,2024-03-14 21:02:27,15.08844616,0.0001395,53.2164,337.8452,104.6905,255.4242,-7.0494e-06,-4e-06,0.0,0 STARLINK-5032,1 53895U 22119K   24074.87671056 -.00000400  00000-0 -70494-5 0  9997,2 53895  53.2164 337.8452 0001395 104.6905 255.4242 15.08844616 81846,6917.866,95.437,540.696,538.766,0.0
53895.0,STARLINK-5032,PAYLOAD,2024-03-14 22:37:51,15.08837971,0.000153,53.2172,337.5497,91.224,268.8928,0.00025638,3.794e-05,0.0,0 STARLINK-5032,1 53895U 22119K   24074.94295419  .00003794  00000-0  25638-3 0  9995,2 53895  53.2172 337.5497 0001530  91.2240 268.8928 15.08837971 82278,6917.887,95.438,540.81,538.693,0.0
53895.0,STARLINK-5032,PAYLOAD,2024-03-15 22:28:38,15.08839374,0.0001598,53.2181,333.0867,103.0245,257.0925,6.6156e-05,7.65e-06,0.0,0 STARLINK-5032,1 53895U 22119K   24075.93655310  .00000765  00000-0  66156-4 0  9991,2 53895  53.2181 333.0867 0001598 103.0245 257.0925 15.08839374 82424,6917.882,95.438,540.853,538.642,0.0
53895.0,STARLINK-5032,PAYLOAD,2024-03-16 00:04:01,15.08839662,0.0001557,53.2179,332.7889,93.9748,266.1422,7.3496e-05,8.82e-06,0.0,0 STARLINK-5032,1 53895U 22119K   24076.00279329  .00000882  00000-0  73496-4 0  9997,2 53895  53.2179 332.7889 0001557  93.9748 266.1422 15.08839662 82019,6917.881,95.438,540.824,538.669,0.0
53895.0,STARLINK-5032,PAYLOAD,2024-03-16 20:44:02,15.08834132,0.0001493,53.2181,328.9253,100.9374,259.1786,1.4623e-05,-5.5e-07,0.0,0 STARLINK-5032,1 53895U 22119K   24076.86392159 -.00000055  00000-0  14623-4 0  9998,2 53895  53.2181 328.9253 0001493 100.9374 259.1786 15.08834132 82143,6917.898,95.438,540.796,538.73,0.0
53895.0,STARLINK-5032,PAYLOAD,2024-03-16 22:19:26,15.08833682,0.0001499,53.2184,328.628,102.5093,257.6066,3.7888e-06,-2.28e-06,0.0,0 STARLINK-5032,1 53895U 22119K   24076.93016206 -.00000228  00000-0  37888-5 0  9993,2 53895  53.2184 328.6280 0001499 102.5093 257.6066 15.08833682 82575,6917.9,95.438,540.802,538.728,0.0
53895.0,STARLINK-5032,PAYLOAD,2024-03-17 22:10:12,15.08837333,0.0001652,53.2184,324.1677,116.0452,244.0711,0.00013467,1.856e-05,0.0,0 STARLINK-5032,1 53895U 22119K   24077.92375800  .00001856  00000-0  13467-3 0  9993,2 53895  53.2184 324.1677 0001652 116.0452 244.0711 15.08837333 82727,6917.889,95.438,540.896,538.611,0.0
53895.0,STARLINK-5032,PAYLOAD,2024-03-18 02:56:21,15.08851459,0.0001451,53.2186,323.2759,95.6816,264.4342,7.5512e-05,9.14e-06,0.0,0 STARLINK-5032,1 53895U 22119K   24078.12247253  .00000914  00000-0  75512-4 0  9990,2 53895  53.2186 323.2759 0001451  95.6816 264.4342 15.08851459 82331,6917.845,95.437,540.714,538.707,0.0
53895.0,STARLINK-5032,PAYLOAD,2024-03-18 20:25:36,15.08843236,0.0001572,53.2182,320.0034,102.4444,257.6724,0.00013032,1.787e-05,0.0,0 STARLINK-5032,1 53895U 22119K   24078.85111796  .00001787  00000-0  13032-3 0  9999,2 53895  53.2182 320.0034 0001572 102.4444 257.6724 15.08843236 82440,6917.87,95.437,540.823,538.648,0.0
53895.0,STARLINK-5032,PAYLOAD,2024-03-18 22:00:59,15.0884384,0.000145,53.2186,319.7057,100.7315,259.3841,0.00012867,1.761e-05,0.0,0 STARLINK-5032,1 53895U 22119K   24078.91735753  .00001761  00000-0  12867-3 0  9998,2 53895  53.2186 319.7057 0001450 100.7315 259.3841 15.08843840 82874,6917.869,95.437,540.737,538.731,0.0
53895.0,STARLINK-5032,PAYLOAD,2024-03-19 01:11:45,15.08846597,0.0001423,53.218,319.1116,100.0057,260.1096,0.00017989,2.577e-05,0.0,0 STARLINK-5032,1 53895U 22119K   24079.04983538  .00002577  00000-0  17989-3 0  9995,2 53895  53.2180 319.1116 0001423 100.0057 260.1096 15.08846597 82890,6917.86,95.437,540.71,538.741,0.0
53895.0,STARLINK-5032,PAYLOAD,2024-03-19 20:16:23,15.08852852,0.0001371,53.218,315.543,91.0767,269.0382,0.00012543,1.71e-05,0.0,0 STARLINK-5032,1 53895U 22119K   24079.84471067  .00001710  00000-0  12543-3 0  9991,2 53895  53.2180 315.5430 0001371  91.0767 269.0382 15.08852852 83010,6917.841,95.437,540.655,538.758,0.0
53895.0,STARLINK-5032,PAYLOAD,2024-03-20 20:07:10,15.0883572,0.0001125,53.2169,311.0859,102.9737,257.1381,-7.9713e-05,-1.556e-05,0.0,0 STARLINK-5032,1 53895U 22119K   24080.83831987 -.00001556  00000-0 -79713-4 0  9996,2 53895  53.2169 311.0859 0001125 102.9737 257.1381 15.08835720 82740,6917.893,95.438,540.537,538.98,0.0
53895.0,STARLINK-5032,PAYLOAD,2024-03-20 21:42:33,15.08835411,0.000114,53.2167,310.7886,101.8256,258.2864,-8.2901e-05,-1.607e-05,0.0,0 STARLINK-5032,1 53895U 22119K   24080.90456003 -.00001607  00000-0 -82901-4 0  9996,2 53895  53.2167 310.7886 0001140 101.8256 258.2864 15.08835411 83178,6917.894,95.438,540.548,538.971,0.0
53895.0,STARLINK-5032,PAYLOAD,2024-03-21 08:50:16,15.08839128,0.0001144,53.2179,308.7038,110.1657,249.9458,-3.4716e-05,-8.4e-06,0.0,0 STARLINK-5032,1 53895U 22119K   24081.36824103 -.00000840  00000-0 -34716-4 0  9996,2 53895  53.2179 308.7038 0001144 110.1657 249.9458 15.08839128 83242,6917.883,95.438,540.539,538.957,0.0
